NORAD_CAT_ID,OBJECT_NAME,OBJECT_TYPE,EPOCH,MEAN_MOTION,ECCENTRICITY,INCLINATION,RA_OF_ASC_NODE,ARG_OF_PERICENTER,MEAN_ANOMALY,BSTAR,MEAN_MOTION_DOT,MEAN_MOTION_DDOT,TLE_LINE0,TLE_LINE1,TLE_LINE2,SEMIMAJOR_AXIS,PERIOD,APOGEE,PERIGEE,DECAYED
52457.0,STARLINK-3899,PAYLOAD,2023-02-13 01:04:44,15.08834788,0.000133,53.215,59.8997,96.3379,263.7765,3.2888e-05,2.35e-06,0.0,0 STARLINK-3899,1 52457U 22049G   23044.04495726  .00000235  00000-0  32888-4 0  9993,2 52457  53.2150  59.8997 0001330  96.3379 263.7765 15.08834788 43096,6917.896,95.438,540.681,538.841,0.0
52457.0,STARLINK-3899,PAYLOAD,2023-02-13 12:12:25,15.08854406,0.000134,53.214,57.8191,94.5523,265.5622,0.00052513,8.083e-05,0.0,0 STARLINK-3899,1 52457U 22049G   23044.50863096  .00008083  00000-0  52513-3 0  9998,2 52457  53.2140  57.8191 0001340  94.5523 265.5622 15.08854406 43160,6917.836,95.437,540.628,538.774,0.0
52457.0,STARLINK-3899,PAYLOAD,2023-02-14 00:55:31,15.08838521,0.0001692,53.2139,55.4374,104.0841,256.034,0.00015178,2.128e-05,0.0,0 STARLINK-3899,1 52457U 22049G   23045.03855811  .00002128  00000-0  15178-3 0  9993,2 52457  53.2139  55.4374 0001692 104.0841 256.0340 15.08838521 43246,6917.885,95.438,540.92,538.579,0.0
52457.0,STARLINK-3899,PAYLOAD,2023-02-14 10:27:50,15.08860894,0.0001163,53.2154,53.6545,96.1944,263.918,0.0012704,0.0002,0.0,0 STARLINK-3899,1 52457U 22049G   23045.43599573  .00020000  00000-0  12704-2 0  9997,2 52457  53.2154  53.6545 0001163  96.1944 263.9180 15.08860894 43305,6917.817,95.436,540.486,538.877,0.0
52457.0,STARLINK-3899,PAYLOAD,2023-02-15 05:32:27,15.08868866,0.0002263,53.2154,50.0855,144.3042,215.8102,0.0018857,0.00029875,0.0,0 STARLINK-3899,1 52457U 22049G   23046.23087430  .00029875  00000-0  18857-2 0  9994,2 52457  53.2154  50.0855 0002263 144.3042 215.8102 15.08868866 43427,6917.792,95.436,541.223,538.092,0.0
52457.0,STARLINK-3899,PAYLOAD,2023-02-15 10:18:36,15.08875674,0.0001083,53.2156,49.194,110.3707,249.7401,0.0019741,0.000313,0.0,0 STARLINK-3899,1 52457U 22049G   23046.42959324  .00031300  00000-0  19741-2 0  9994,2 52457  53.2156  49.1940 0001083 110.3707 249.7401 15.08875674 43291,6917.771,95.435,540.386,538.887,0.0
52457.0,STARLINK-3899,PAYLOAD,2023-02-15 16:40:09,15.08864085,0.000108,53.2153,48.0026,102.3602,257.7511,0.0017776,0.00028134,0.0,0 STARLINK-3899,1 52457U 22049G   23046.69455278  .00028134  00000-0  17776-2 0  9999,2 52457  53.2153  48.0026 0001080 102.3602 257.7511 15.08864085 43333,6917.807,95.436,540.419,538.925,0.0
52457.0,STARLINK-3899,PAYLOAD,2023-02-16 00:37:05,15.08850967,0.0001817,53.2165,46.5206,110.461,249.6577,0.0014989,0.00023655,0.0,0 STARLINK-3899,1 52457U 22049G   23047.02575609  .00023655  00000-0  14989-2 0  9994,2 52457  53.2165  46.5206 0001817 110.4610 249.6577 15.08850967 43545,6917.847,95.437,540.969,538.455,0.0
52457.0,STARLINK-3899,PAYLOAD,2023-02-16 08:34:00,15.08865641,0.0001092,53.2155,45.0323,92.6647,267.447,0.0021243,0.00033706,0.0,0 STARLINK-3899,1 52457U 22049G   23047.35695230  .00033706  00000-0  21243-2 0  9992,2 52457  53.2155  45.0323 0001092  92.6647 267.4470 15.08865641 43437,6917.802,95.436,540.422,538.912,0.0
52457.0,STARLINK-3899,PAYLOAD,2023-02-16 16:30:56,15.08857536,0.0001253,53.2157,43.545,85.8441,274.2695,0.0012653,0.00019916,0.0,0 STARLINK-3899,1 52457U 22049G   23047.68815305  .00019916  00000-0  12653-2 0  9997,2 52457  53.2157  43.5450 0001253  85.8441 274.2695 15.08857536 43482,6917.827,95.436,540.559,538.825,0.0
52457.0,STARLINK-3899,PAYLOAD,2023-02-17 00:27:52,15.08818796,0.0001204,53.2146,42.0567,79.1084,281.0043,0.0001509,2.113e-05,0.0,0 STARLINK-3899,1 52457U 22049G   23048.01936185  .00002113  00000-0  15090-3 0  9995,2 52457  53.2146  42.0567 0001204  79.1084 281.0043 15.08818796 43699,6917.945,95.439,540.643,538.977,0.0
52457.0,STARLINK-3899,PAYLOAD,2023-02-17 06:49:25,15.08825371,0.0001444,53.2151,40.8684,81.0539,279.0616,0.0013451,0.00021175,0.0,0 STARLINK-3899,1 52457U 22049G   23048.28432522  .00021175  00000-0  13451-2 0  9997,2 52457  53.2151  40.8684 0001444  81.0539 279.0616 15.08825371 43739,6917.925,95.438,540.789,538.791,0.0
52457.0,STARLINK-3899,PAYLOAD,2023-02-18 03:29:27,15.08836987,0.000157,53.2154,37.0028,86.9525,273.1647,0.00077085,0.00012,0.0,0 STARLINK-3899,1 52457U 22049G   23049.14545267  .00012000  00000-0  77085-3 0  9995,2 52457  53.2154  37.0028 0001570  86.9525 273.1647 15.08836987 43869,6917.89,95.438,540.841,538.668,0.0
52457.0,STARLINK-3899,PAYLOAD,2023-02-19 08:06:22,15.08859868,0.0001596,53.2153,31.6475,83.1986,276.9187,0.0006986,0.00010854,0.0,0 STARLINK-3899,1 52457U 22049G   23050.33776597  .00010854  00000-0  69860-3 0  9997,2 52457  53.2153  31.6475 0001596  83.1986 276.9187 15.08859868 43887,6917.82,95.436,540.789,538.581,0.0
52457.0,STARLINK-3899,PAYLOAD,2023-02-19 16:03:18,15.08850791,0.0001516,53.2145,30.1625,78.0104,282.1058,0.00018745,2.697e-05,0.0,0 STARLINK-3899,1 52457U 22049G   23050.66896460  .00002697  00000-0  18745-3 0  9997,2 52457  53.2145  30.1625 0001516  78.0104 282.1058 15.08850791 44092,6917.847,95.437,540.761,538.664,0.0
52457.0,STARLINK-3899,PAYLOAD,2023-02-20 07:57:09,15.0885084,0.0001554,53.2155,27.1879,85.6781,274.4389,0.00016241,2.298e-05,0.0,0 STARLINK-3899,1 52457U 22049G   23051.33136200  .00002298  00000-0  16241-3 0  9997,2 52457  53.2155  27.1879 0001554  85.6781 274.4389 15.08850840 44037,6917.847,95.437,540.787,538.637,0.0
52457.0,STARLINK-3899,PAYLOAD,2023-02-20 15:54:05,15.08844712,0.000135,53.2155,25.6987,96.5306,263.5839,2.6844e-05,1.39e-06,0.0,0 STARLINK-3899,1 52457U 22049G   23051.66256311  .00000139  00000-0  26844-4 0  9992,2 52457  53.2155  25.6987 0001350  96.5306 263.5839 15.08844712 44241,6917.866,95.437,540.665,538.797,0.0
52457.0,STARLINK-3899,PAYLOAD,2023-02-21 07:47:56,15.0884772,0.0001629,53.2168,22.7241,111.3943,248.7224,-2.843e-05,-7.41e-06,0.0,0 STARLINK-3899,1 52457U 22049G   23052.32496205 -.00000741  00000-0 -28430-4 0  9998,2 52457  53.2168  22.7241 0001629 111.3943 248.7224 15.08847720 44186,6917.857,95.437,540.849,538.595,0.0
52457.0,STARLINK-3899,PAYLOAD,2023-02-22 04:27:56,15.0885244,0.0001167,53.2152,18.8602,93.611,266.5016,0.00014143,1.964e-05,0.0,0 STARLINK-3899,1 52457U 22049G   23053.18607370  .00001964  00000-0  14143-3 0  9991,2 52457  53.2152  18.8602 0001167  93.6110 266.5016 15.08852440 44475,6917.842,95.437,540.515,538.9,0.0
52457.0,STARLINK-3899,PAYLOAD,2023-02-22 07:38:43,15.08856296,0.0001345,53.2169,18.2656,91.5402,268.5744,0.00018187,2.609e-05,0.0,0 STARLINK-3899,1 52457U 22049G   23053.31855401  .00002609  00000-0  18187-3 0  9995,2 52457  53.2169  18.2656 0001345  91.5402 268.5744 15.08856296 44333,6917.831,95.437,540.626,538.765,0.0
52457.0,STARLINK-3899,PAYLOAD,2023-02-22 21:57:12,15.08830704,0.0001257,53.2163,15.5868,112.5225,247.5901,-3.5631e-05,-8.55e-06,0.0,0 STARLINK-3899,1 52457U 22049G   23053.91472785 -.00000855  00000-0 -35631-4 0  9998,2 52457  53.2163  15.5868 0001257 112.5225 247.5901 15.08830704 44429,6917.909,95.438,540.643,538.904,0.0
52457.0,STARLINK-3899,PAYLOAD,2023-02-23 07:29:31,15.08840429,0.0001045,53.2154,13.8061,89.9311,270.1801,6.9559e-05,8.19e-06,0.0,0 STARLINK-3899,1 52457U 22049G   23054.31216523  .00000819  00000-0  69559-4 0  9993,2 52457  53.2154  13.8061 0001045  89.9311 270.1801 15.08840429 44643,6917.879,95.438,540.467,539.021,0.0
52457.0,STARLINK-3899,PAYLOAD,2023-02-24 07:20:17,15.08858627,9.49e-05,53.2157,9.3453,91.361,268.749,0.00042779,6.53e-05,0.0,0 STARLINK-3899,1 52457U 22049G   23055.30575665  .00006530  00000-0  42779-3 0  9998,2 52457  53.2157   9.3453 0000949  91.3610 268.7490 15.08858627 44794,6917.823,95.436,540.345,539.032,0.0
52457.0,STARLINK-3899,PAYLOAD,2023-02-24 21:38:46,15.08836165,0.0001188,53.2148,6.6676,90.0763,270.0365,-1.6843e-05,-5.56e-06,0.0,0 STARLINK-3899,1 52457U 22049G   23055.90192582 -.00000556  00000-0 -16843-4 0  9995,2 52457  53.2148   6.6676 0001188  90.0763 270.0365 15.08836165 44882,6917.892,95.438,540.579,538.935,0.0
52457.0,STARLINK-3899,PAYLOAD,2023-02-25 05:35:42,15.08836806,9.15e-05,53.2156,5.1827,67.8106,292.2983,4.5439e-05,4.35e-06,0.0,0 STARLINK-3899,1 52457U 22049G   23056.23312825  .00000435  00000-0  45439-4 0  9993,2 52457  53.2156   5.1827 0000915  67.8106 292.2983 15.08836806 44775,6917.89,95.438,540.388,539.122,0.0
52457.0,STARLINK-3899,PAYLOAD,2023-02-26 05:26:29,15.08848685,0.0001305,53.2157,0.7221,63.6082,296.5044,0.00081842,0.00012764,0.0,0 STARLINK-3899,1 52457U 22049G   23057.22673040  .00012764  00000-0  81842-3 0  9997,2 52457  53.2157   0.7221 0001305  63.6082 296.5044 15.08848685 44926,6917.854,95.437,540.622,538.816,0.0
52457.0,STARLINK-3899,PAYLOAD,2023-02-26 19:44:57,15.0885394,0.0001097,53.215,358.0455,71.4141,288.697,0.00051868,7.98e-05,0.0,0 STARLINK-3899,1 52457U 22049G   23057.82288568  .00007980  00000-0  51868-3 0  9999,2 52457  53.2150 358.0455 0001097  71.4141 288.6970 15.08853940 45019,6917.838,95.437,540.462,538.944,0.0
52457.0,STARLINK-3899,PAYLOAD,2023-02-27 06:52:38,15.08895611,0.0001119,53.2151,355.9635,86.2575,273.8545,0.0018185,0.00028816,0.0,0 STARLINK-3899,1 52457U 22049G   23058.28655264  .00028816  00000-0  18185-2 0  9996,2 52457  53.2151 355.9635 0001119  86.2575 273.8545 15.08895611 45246,6917.71,95.434,540.35,538.801,0.0
52457.0,STARLINK-3899,PAYLOAD,2023-02-27 19:35:43,15.08896007,0.0001614,53.2153,353.585,87.577,272.5407,0.0030693,0.00048975,0.0,0 STARLINK-3899,1 52457U 22049G   23058.81647169  .00048975  00000-0  30693-2 0  9996,2 52457  53.2153 353.5850 0001614  87.5770 272.5407 15.08896007 45324,6917.709,95.434,540.691,538.458,0.0
52457.0,STARLINK-3899,PAYLOAD,2023-02-28 05:08:01,15.08897981,0.0001446,53.2147,351.801,69.3947,290.72,0.0028445,0.00045346,0.0,0 STARLINK-3899,1 52457U 22049G   23059.21390406  .00045346  00000-0  28445-2 0  9991,2 52457  53.2147 351.8010 0001446  69.3947 290.7200 15.08897981 45384,6917.703,95.434,540.568,538.568,0.0
